P/2016 A2 (Christensen),e,26.4069,291.6142,141.5977,4.749854,0.0952102,0.27101902,173.3162,06/14.0/2020,2000,g 11.5,4.0
# From MPC115881
P/2016 A3 (PANSTARRS),e,8.5109,187.2918,340.9043,7.890268,0.0444699,0.38782264,50.7597,06/14.0/2020,2000,g 10.0,4.0
# From MPC109143
C/2016 A5 (PANSTARRS),e,40.2405,136.1829,321.5039,645.6560,0.0000601,0.99544204,0.0000,06/26.7420/2015,2000,g 13.5,4.0
# From MPC109143
C/2016 A6 (PANSTARRS),e,120.9354,300.3769,141.0556,206.3279,0.0003326,0.98834489,0.0000,11/06.4353/2015,2000,g 15.0,4.0
# From MPC102098
P/2016 A7 (PANSTARRS),e,16.6266,221.4801,352.6311,5.030954,0.0873431,0.56552776,137.2109,06/14.0/2020,2000,g 16.0,4.0
# From MPC106345
C/2016 A8 (LINEAR),e,148.2428,111.3310,130.3730,34.27620,0.0049115,0.94496255,6.8003,06/14.0/2020,2000,g 12.0,4.0
# From MPC107048
C/2016 B1 (NEOWISE),e,50.4639,231.9826,8.6771,442.6096,0.0001058,0.99273898,0.0000,12/04.7753/2016,2000,g  9.5,4.0
# From MPC109143
P/2016 BA14 (PANSTARRS),e,18.8956,180.5342,351.9044,3.024327,0.1873962,0.66523354,290.9765,06/14.0/2020,2000,g 21.0,4.0
# From MPC110494
C/2016 C1 (PANSTARRS),h,02/18.9795/2016,56.2211,181.8056,328.7663,1.002318,8.466593,2000,5.5,4.0
# From MPC101098
C/2016 C2 (NEOWISE),e,38.0767,24.4243,214.5480,65.97166,0.0018394,0.97625191,0.0000,04/19.5212/2016,2000,g 16.0,4.0
# From MPC110494
C/2016 E1 (PANSTARRS),h,06/04.2188/2017,131.8910,233.0625,47.4680,1.005808,8.179873,2000,6.5,4.0
# From MPC 99821
C/2016 E2 (Kowalski),e,135.9043,186.8601,321.9384,140.0533,0.0005947,0.99231818,0.0000,02/06.8866/2016,2000,g 20.0,4.0
# From MPC102098
P/2016 G1 (PANSTARRS),e,10.9690,204.0593,111.2872,2.582464,0.2374940,0.21097217,293.1614,06/14.0/2020,2000,g 14.0,4.0
# From MPEC 2017-D91
P/2016 J1-A (PANSTARRS),e,14.3248,199.8261,46.8815,3.174105,0.1742898,0.22819457,252.5896,06/14.0/2020,2000,g 16.5,4.0
# From MPEC 2017-A77
P/2016 J1-B (PANSTARRS),e,14.3275,199.8309,46.7727,3.173735,0.1743203,0.22804560,252.7085,06/14.0/2020,2000,g 17.0,4.0
# From MPC101099
C/2016 J2 (Denneau),e,130.3361,186.3677,318.6406,636.6824,0.0000614,0.99761122,0.0000,04/12.1811/2016,2000,g 17.0,4.0
# From MPC102099
C/2016 KA (Catalina),e,104.6862,317.5079,63.1985,6573,0.0000018,0.99917754,0.0000,02/02.3128/2016,2000,g  8.5,4.0
# From MPC104792
C/2016 K1 (LINEAR),e,90.9238,325.6249,18.2819,37161,0.0000001,0.99993827,0.0000,07/13.3283/2016,2000,g 13.0,4.0
# From MPC119995
C/2016 M1 (PANSTARRS),e,90.9995,92.2038,209.8774,4233,0.0000036,0.99947746,0.0000,08/10.3035/2018,2000,g  5.0,4.0
# From MPC115881
C/2016 N4 (MASTER),e,72.5977,354.0010,55.9383,2399,0.0000084,0.99866689,0.0000,09/16.4769/2017,2000,g  8.5,4.0
# From MPC119995
C/2016 N6 (PANSTARRS),e,105.8409,298.9901,162.7605,1724,0.0000138,0.99845257,0.0000,07/18.1017/2018,2000,g  7.0,4.0
# From MPC102099
P/2016 P1 (PANSTARRS),e,24.4552,319.5641,270.0577,3.194676,0.1726092,0.28934546,297.6683,06/14.0/2020,2000,g 15.0,4.0
# From MPC102099
C/2016 P4 (PANSTARRS),e,29.8809,320.7338,356.1670,397.8489,0.0001242,0.98518735,0.0000,10/18.0433/2016,2000,g 10.5,4.0
# From MPC118093
C/2016 Q2 (PANSTARRS),e,109.3893,322.2990,84.5006,18936,0.0000004,0.99962598,0.0000,05/11.5385/2021,2000,g  6.0,4.0
# From MPC102955
C/2016 Q4 (Kowalski),e,7.2575,271.2851,99.3995,16.90042,0.0141859,0.58075713,12.3300,06/14.0/2020,2000,g  7.0,4.0
# From MPC119995
C/2016 R2 (PANSTARRS),e,58.2251,80.5692,33.1821,555.7667,0.0000752,0.99531624,0.0000,05/09.3123/2018,2000,g  7.0,4.0
# From MPC102099
C/2016 R3 (Borisov),e,53.0424,78.6653,118.1970,200.0075,0.0003484,0.99774043,0.0000,10/10.4476/2016,2000,g 18.0,4.0
# From MPC109144
P/2016 R4 (Gibbs),e,10.8695,168.2823,173.9985,5.331473,0.0800633,0.47603456,113.9845,06/14.0/2020,2000,g 12.5,4.0
# From MPC105543
P/2016 S1 (PANSTARRS),e,94.6550,227.5243,273.2716,8.279222,0.0413733,0.71012612,49.0592,06/14.0/2020,2000,g 12.0,4.0
# From MPC105238
C/2016 T1 (Matheny),e,129.8474,56.2843,137.4122,123.7883,0.0007156,0.98138848,0.0000,02/01.2788/2017,2000,g 14.5,4.0
# From MPC107685
C/2016 T2 (Matheny),e,81.3735,339.1564,92.2435,99.13050,0.0009986,0.98076734,0.0000,12/29.0440/2016,2000,g 14.5,4.0
# From MPC110082
C/2016 T3 (PANSTARRS),e,22.6774,271.7415,194.6707,133.3094,0.0006403,0.98012136,0.0000,09/06.5466/2017,2000,g 10.5,4.0
# From MPC103847
C/2016 U1 (NEOWISE),h,01/14.0040/2017,46.3825,61.4764,162.8326,1.000403,0.322047,2000,17.0,4.0
# From MPC106345
C/2016 VZ18 (PANSTARRS),e,23.9835,98.9214,36.4203,168.8817,0.0004491,0.99458693,0.0000,03/06.0471/2017,2000,g 19.5,4.0
# From MPC106345
P/2016 WM48 (Lemmon),e,117.4248,59.9019,36.0834,8.168209,0.0422196,0.78406140,50.9096,06/14.0/2020,2000,g 15.0,4.0
# From MPC119995
C/2016 X1 (Lemmon),e,26.4543,256.4201,224.5200,1367,0.0000195,0.99446783,0.0000,04/29.0460/2019,2000,g  6.0,4.0
# From MPC108594
C/2017 A1 (PANSTARRS),e,49.7917,121.0453,2.0533,76.98968,0.0014590,0.97022864,0.0000,05/16.4015/2017,2000,g 13.0,4.0
# From MPC108594
C/2017 A3 (Elenin),e,98.5372,97.9077,304.0395,43.48328,0.0034373,0.91148051,4.2287,06/14.0/2020,2000,g  9.5,4.0
# From MPC114598
C/2017 AB5 (PANSTARRS),e,32.4356,42.6569,78.3517,2642,0.0000073,0.99651286,0.0000,02/16.1557/2018,2000,g  5.5,4.0
# From MPC119995
C/2017 B3 (LINEAR),h,02/02.6351/2019,54.1744,2.1795,284.7812,1.001899,3.922018,2000,6.0,4.0
# From MPC103847
P/2017 B4 (PANSTARRS),e,20.0584,121.4578,11.0197,4.410520,0.1064068,0.36495152,359.9130,01/05.0/2017,2000,g 14.5,4.0
# From MPC104793
C/2017 C1 (NEOWISE),e,65.7490,357.5068,110.1159,20.60964,0.0105341,0.92717988,13.0893,06/14.0/2020,2000,g 18.0,4.0
# From MPC107685
C/2017 C2 (PANSTARRS),e,118.5883,249.8048,138.6398,97.07046,0.0010306,0.97502402,0.0000,01/21.6014/2017,2000,g 14.0,4.0
# From MPC104793
P/2017 D1 (Fuls),e,20.7578,82.1795,8.0935,4.829977,0.0928510,0.43652002,134.6139,06/14.0/2020,2000,g 14.0,4.0
# From MPC112391
C/2017 D2 (Barros),e,31.2567,330.9726,334.4707,3310,0.0000052,0.99924827,0.0000,07/14.8542/2017,2000,g 11.0,4.0
# From MPC114598
C/2017 D3 (ATLAS),h,04/27.2928/2017,125.5795,186.6568,340.8590,1.002079,4.974005,2000,8.0,4.0
# From MPC110495
P/2017 D4 (PANSTARRS),e,10.5289,264.9388,212.3194,7.567765,0.0473427,0.62854301,65.1977,06/14.0/2020,2000,g 13.0,4.0
# From MPC104794
C/2017 D5 (PANSTARRS),e,131.0587,92.7344,287.7774,114.9308,0.0007999,0.98118581,0.0000,01/09.4052/2017,2000,g 16.0,4.0
# From MPC106346
C/2017 E1 (Borisov),h,04/10.5349/2017,14.5676,142.5960,152.6372,1.003016,0.900903,2000,14.0,4.0
# From MPC109144
C/2017 E2 (Tsuchinshan),e,79.0511,11.5883,89.3830,21.53752,0.0098608,0.89082396,14.7368,06/14.0/2020,2000,g 11.5,4.0
# From MPC115882
C/2017 E3 (PANSTARRS),h,06/08.1459/2017,70.6286,220.7329,334.5205,1.006949,5.937605,2000,6.5,4.0
# From MPC105239
C/2017 E4 (Lovejoy),h,04/23.5848/2017,88.1122,223.0858,87.0684,1.001503,0.491305,2000,17.0,4.0
# From MPC105239
C/2017 E5 (Lemmon),e,122.6636,206.3081,306.9040,390.4720,0.0001277,0.99542002,0.0000,06/10.5826/2016,2000,g 13.0,4.0
# From MPC111769
C/2017 F1 (Lemmon),h,11/30.4827/2017,146.4675,158.7826,64.7780,1.004034,4.497015,2000,10.5,4.0
# From MPC114598
C/2017 F2 (PANSTARRS),h,11/27.7131/2017,42.5135,38.6707,135.0489,1.004244,6.931985,2000,7.5,4.0
# From MPC104794
P/2017 G1 (PANSTARRS),e,4.7737,249.6269,224.5713,7.291204,0.0500617,0.65309994,75.4864,06/14.0/2020,2000,g 13.5,4.0
# From MPC108595
P/2017 G2 (PANSTARRS),e,47.9481,79.7913,105.5886,8.074703,0.0429551,0.64848120,47.1642,06/14.0/2020,2000,g 13.0,4.0
# From MPC109144
C/2017 G3 (PANSTARRS),e,159.0588,279.4803,73.1501,310.2011,0.0001804,0.99164724,0.0000,04/15.5433/2017,2000,g 14.0,4.0
# From MPC115882
C/2017 K1 (PANSTARRS),h,03/17.1267/2018,154.0108,225.6544,4.3779,1.001647,7.289228,2000,7.0,4.0
# From MPC119995
C/2017 K2 (PANSTARRS),h,12/19.9701/2022,87.5429,88.2657,236.1608,1.000427,1.799482,2000,1.5,4.0
# From MPC106346
P/2017 K3 (Gasparovic),e,4.2744,354.2961,253.4438,5.580646,0.0747614,0.58081652,82.9369,06/14.0/2020,2000,g 14.5,4.0
# From MPC114598
C/2017 K4 (ATLAS),e,16.6806,298.8680,15.2079,28.44793,0.0064957,0.90685657,5.7658,06/14.0/2020,2000,g 10.0,4.0
# From MPC119995
C/2017 K5 (PANSTARRS),h,03/25.0378/2020,82.2573,102.3741,171.8928,1.006819,7.678828,2000,5.0,4.0
# From MPC114599
C/2017 K6 (Jacques),e,57.2536,85.0501,303.7654,1055,0.0000288,0.99810488,0.0000,01/03.2448/2018,2000,g 11.0,4.0
# From MPC110083
C/2017 M3 (PANSTARRS),e,77.5381,7.0078,110.3557,167.4484,0.0004549,0.97218092,0.0000,04/28.1623/2017,2000,g 10.5,4.0
# From MPC118093
C/2017 M4 (ATLAS),h,01/17.8854/2019,105.6448,65.8656,167.5709,1.001162,3.251936,2000,6.0,4.0
# From MPC118841
C/2017 M5 (TOTAS),h,06/03.8787/2018,15.8811,216.2762,92.7305,1.005169,5.992018,2000,6.5,4.0
# From MPC114599
C/2017 O1 (ASASSN),e,39.8823,25.7751,20.8534,357.2150,0.0001460,0.99581222,0.0000,10/14.7480/2017,2000,g 11.0,4.0
# From MPC114599
P/2017 P1 (PANSTARRS),e,7.6985,221.4013,122.2084,7.889557,0.0444759,0.31042262,32.3273,06/14.0/2020,2000,g 10.0,4.0
# From MPC114599
C/2017 P2 (PANSTARRS),e,50.0589,165.5032,132.3239,1958,0.0000114,0.99874176,0.0000,12/06.6913/2017,2000,g 10.0,4.0
# From MPC114599
P/2017 R1 (PANSTARRS),e,2.5737,143.6213,178.5283,4.134879,0.1172222,0.19560119,136.1526,06/14.0/2020,2000,g 13.5,4.0
# From MPC108595
C/2017 S2 (PANSTARRS),e,12.6798,62.4136,305.9374,20.51137,0.0106099,0.82392176,10.8168,06/14.0/2020,2000,g 13.0,4.0
# From MPC114599
C/2017 S3 (PANSTARRS),h,08/15.9676/2018,99.1082,171.1408,255.8427,1.000049,0.208378,2000,11.0,4.0
# From MPC114599
P/2017 S5 (ATLAS),e,11.8503,252.3845,99.8345,3.168862,0.1747226,0.31388307,183.7493,06/14.0/2020,2000,g 14.0,4.0
# From MPC109591
C/2017 S6 (Catalina),h,02/26.6212/2018,152.8675,131.0445,134.7929,1.000678,1.542234,2000,12.5,4.0
# From MPC114599
C/2017 S7 (Lemmon),h,05/25.8220/2017,124.2324,262.7908,187.6188,1.001073,7.609024,2000,7.0,4.0
# From MPC114599
P/2017 S8 (PANSTARRS),e,29.8213,191.7076,254.7233,2.778630,0.2127933,0.39250389,184.7091,06/14.0/2020,2000,g 16.0,4.0
# From MPC107050
